[{"OBJECT_NAME":"STARLINK-6285","OBJECT_ID":"2023-061AH","EPOCH":"2026-03-09T15:06:52.329312","MEAN_MOTION":15.02532975,"ECCENTRICITY":0.000112,"INCLINATION":43.0023,"RA_OF_ASC_NODE":184.9675,"ARG_OF_PERICENTER":267.3012,"MEAN_ANOMALY":92.7702,"EPHEMERIS_TYPE":0,"CLASSIFICATION_TYPE":"U","NORAD_CAT_ID":56405,"ELEMENT_SET_NO":999,"REV_AT_EPOCH":15689,"BSTAR":3.4063191e-5,"MEAN_MOTION_DOT":2.57e-6,"MEAN_MOTION_DDOT":0},{"OBJECT_NAME":"SPOT 2","OBJECT_ID":"1990-005A","EPOCH":"2026-03-09T21:55:30.289728","MEAN_MOTION":14.73729036,"ECCENTRICITY":0.01297919,"INCLINATION":98.6985,"RA_OF_ASC_NODE":218.7434,"ARG_OF_PERICENTER":40.4901,"MEAN_ANOMALY":320.5875,"EPHEMERIS_TYPE":0,"CLASSIFICATION_TYPE":"U","NORAD_CAT_ID":20436,"ELEMENT_SET_NO":999,"REV_AT_EPOCH":90070,"BSTAR":0.00013767957,"MEAN_MOTION_DOT":9.62e-6,"MEAN_MOTION_DDOT":0}]
